[{"OBJECT_NAME":"STARLINK-3996","OBJECT_ID":"2022-052V","EPOCH":"2026-03-09T22:39:01.701216","MEAN_MOTION":15.0883833,"ECCENTRICITY":0.0001327,"INCLINATION":53.2174,"RA_OF_ASC_NODE":267.9799,"ARG_OF_PERICENTER":85.0569,"MEAN_ANOMALY":275.0575,"EPHEMERIS_TYPE":0,"CLASSIFICATION_TYPE":"U","NORAD_CAT_ID":52617,"ELEMENT_SET_NO":999,"REV_AT_EPOCH":21102,"BSTAR":4.6699496e-5,"MEAN_MOTION_DOT":4.55e-6,"MEAN_MOTION_DDOT":0},{"OBJECT_NAME":"CZ-6A DEB","OBJECT_ID":"2024-140PS","EPOCH":"2026-03-09T14:06:57.647808","MEAN_MOTION":14.7419151,"ECCENTRICITY":0.0174551,"INCLINATION":88.9937,"RA_OF_ASC_NODE":280.0508,"ARG_OF_PERICENTER":181.2195,"MEAN_ANOMALY":178.8626,"EPHEMERIS_TYPE":0,"CLASSIFICATION_TYPE":"U","NORAD_CAT_ID":61124,"ELEMENT_SET_NO":999,"REV_AT_EPOCH":8308,"BSTAR":0.00056687,"MEAN_MOTION_DOT":4.809e-5,"MEAN_MOTION_DDOT":0}]
